NORAD_CAT_ID,OBJECT_NAME,OBJECT_TYPE,EPOCH,MEAN_MOTION,ECCENTRICITY,INCLINATION,RA_OF_ASC_NODE,ARG_OF_PERICENTER,MEAN_ANOMALY,BSTAR,MEAN_MOTION_DOT,MEAN_MOTION_DDOT,TLE_LINE0,TLE_LINE1,TLE_LINE2,SEMIMAJOR_AXIS,PERIOD,APOGEE,PERIGEE,DECAYED
51768.0,STARLINK-3622,PAYLOAD,2024-06-18 14:31:23,15.08840157,0.0001233,53.2164,283.1919,80.0668,280.0463,0.00017278,2.463e-05,0.0,0 STARLINK-3622,1 51768U 22017A   24170.60512874  .00002463  00000-0  17278-3 0  9999,2 51768  53.2164 283.1919 0001233  80.0668 280.0463 15.08840157129071,6917.88,95.438,540.598,538.892,0.0
51768.0,STARLINK-3622,PAYLOAD,2024-06-19 00:03:41,15.08852597,0.0001253,53.2165,281.4074,80.777,279.3364,0.00061611,9.534e-05,0.0,0 STARLINK-3622,1 51768U 22017A   24171.00256653  .00009534  00000-0  61611-3 0  9990,2 51768  53.2165 281.4074 0001253  80.7770 279.3364 15.08852597129148,6917.842,95.437,540.574,538.84,0.0
51768.0,STARLINK-3622,PAYLOAD,2024-06-19 12:46:47,15.08832704,0.0001375,53.217,279.0296,90.6389,269.4761,-5.9716e-05,-1.238e-05,0.0,0 STARLINK-3622,1 51768U 22017A   24171.53249333 -.00001238  00000-0 -59716-4 0  9994,2 51768  53.2170 279.0296 0001375  90.6389 269.4761 15.08832704129222,6917.903,95.438,540.719,538.816,0.0
51768.0,STARLINK-3622,PAYLOAD,2024-06-19 14:22:10,15.088344,0.0001329,53.2173,278.7327,92.1788,267.9357,-5.3795e-06,-3.73e-06,0.0,0 STARLINK-3622,1 51768U 22017A   24171.59873298 -.00000373  00000-0 -53795-5 0  9994,2 51768  53.2173 278.7327 0001329  92.1788 267.9357 15.08834400129224,6917.898,95.438,540.682,538.843,0.0
51768.0,STARLINK-3622,PAYLOAD,2024-06-19 15:57:33,15.08836823,0.0001391,53.2176,278.435,91.5496,268.5656,7.2248e-05,8.62e-06,0.0,0 STARLINK-3622,1 51768U 22017A   24171.66497282  .00000862  00000-0  72248-4 0  9991,2 51768  53.2176 278.4350 0001391  91.5496 268.5656 15.08836823129239,6917.89,95.438,540.717,538.793,0.0
51768.0,STARLINK-3622,PAYLOAD,2024-06-20 14:12:57,15.08845739,0.0001384,53.2177,274.2727,94.0876,266.0274,0.0005012,7.699e-05,0.0,0 STARLINK-3622,1 51768U 22017A   24172.59233379  .00007699  00000-0  50120-3 0  9998,2 51768  53.2177 274.2727 0001384  94.0876 266.0274 15.08845739129374,6917.863,95.437,540.685,538.77,0.0
51768.0,STARLINK-3622,PAYLOAD,2024-06-20 17:23:43,15.08847922,0.0001333,53.2171,273.6773,87.9816,272.1329,0.00049454,7.593e-05,0.0,0 STARLINK-3622,1 51768U 22017A   24172.72481335  .00007593  00000-0  49454-3 0  9991,2 51768  53.2171 273.6773 0001333  87.9816 272.1329 15.08847922129400,6917.856,95.437,540.643,538.799,0.0
51768.0,STARLINK-3622,PAYLOAD,2024-06-21 12:28:21,15.08840438,0.0001385,53.2172,270.109,77.1406,282.9741,6.9927e-05,8.25e-06,0.0,0 STARLINK-3622,1 51768U 22017A   24173.51969305  .00000825  00000-0  69927-4 0  9996,2 51768  53.2172 270.1090 0001385  77.1406 282.9741 15.08840438129523,6917.879,95.438,540.702,538.786,0.0
51768.0,STARLINK-3622,PAYLOAD,2024-06-21 14:03:44,15.08843789,0.0001336,53.2169,269.8113,76.1326,283.9815,0.00019806,2.866e-05,0.0,0 STARLINK-3622,1 51768U 22017A   24173.58593322  .00002866  00000-0  19806-3 0  9992,2 51768  53.2169 269.8113 0001336  76.1326 283.9815 15.08843789129521,6917.869,95.437,540.658,538.81,0.0
51768.0,STARLINK-3622,PAYLOAD,2024-06-21 15:39:07,15.08844759,0.0001355,53.2168,269.5139,75.0448,285.0694,0.00023277,3.419e-05,0.0,0 STARLINK-3622,1 51768U 22017A   24173.65217304  .00003419  00000-0  23277-3 0  9995,2 51768  53.2168 269.5139 0001355  75.0448 285.0694 15.08844759129536,6917.866,95.437,540.668,538.793,0.0
51768.0,STARLINK-3622,PAYLOAD,2024-06-22 13:54:31,15.08844634,0.0001364,53.2163,265.3515,71.3829,288.7311,0.00036186,5.476e-05,0.0,0 STARLINK-3622,1 51768U 22017A   24174.57953445  .00005476  00000-0  36186-3 0  9998,2 51768  53.2163 265.3515 0001364  71.3829 288.7311 15.08844634129678,6917.866,95.437,540.675,538.788,0.0
51768.0,STARLINK-3622,PAYLOAD,2024-06-23 12:09:55,15.08841505,0.0001494,53.2169,261.188,68.5069,291.6083,0.00016325,2.311e-05,0.0,0 STARLINK-3622,1 51768U 22017A   24175.50689694  .00002311  00000-0  16325-3 0  9992,2 51768  53.2169 261.1880 0001494  68.5069 291.6083 15.08841505129821,6917.876,95.437,540.774,538.707,0.0
51768.0,STARLINK-3622,PAYLOAD,2024-06-24 12:00:42,15.08843213,0.000133,53.2168,256.7249,83.8739,276.2405,0.00013313,1.832e-05,0.0,0 STARLINK-3622,1 51768U 22017A   24176.50049421  .00001832  00000-0  13313-3 0  9992,2 51768  53.2168 256.7249 0001330  83.8739 276.2405 15.08843213129962,6917.871,95.437,540.656,538.815,0.0
51768.0,STARLINK-3622,PAYLOAD,2024-06-25 11:51:29,15.08840724,0.0001276,53.2163,252.2637,86.4992,273.6146,3.7739e-05,3.13e-06,0.0,0 STARLINK-3622,1 51768U 22017A   24177.49409419  .00000313  00000-0  37739-4 0  9990,2 51768  53.2163 252.2637 0001276  86.4992 273.6146 15.08840724130125,6917.878,95.438,540.626,538.86,0.0
51768.0,STARLINK-3622,PAYLOAD,2024-06-26 11:42:16,15.08839434,0.0001258,53.2167,247.8019,90.8551,269.2585,6.1009e-05,6.83e-06,0.0,0 STARLINK-3622,1 51768U 22017A   24178.48769525  .00000683  00000-0  61009-4 0  9994,2 51768  53.2167 247.8019 0001258  90.8551 269.2585 15.08839434130262,6917.882,95.438,540.617,538.877,0.0
51768.0,STARLINK-3622,PAYLOAD,2024-06-27 11:33:04,15.08834655,0.0001232,53.2164,243.3463,89.5661,270.5472,5.5642e-05,5.98e-06,0.0,0 STARLINK-3622,1 51768U 22017A   24179.48130133  .00000598  00000-0  55642-4 0  9993,2 51768  53.2164 243.3463 0001232  89.5661 270.5472 15.08834655130420,6917.897,95.438,540.614,538.909,0.0
51768.0,STARLINK-3622,PAYLOAD,2024-06-28 11:23:51,15.08841988,0.0001214,53.2156,238.8853,84.4436,275.6694,0.00010391,1.366e-05,0.0,0 STARLINK-3622,1 51768U 22017A   24180.47489834  .00001366  00000-0  10391-3 0  9994,2 51768  53.2156 238.8853 0001214  84.4436 275.6694 15.08841988130561,6917.874,95.437,540.579,538.899,0.0
51768.0,STARLINK-3622,PAYLOAD,2024-06-29 11:14:38,15.08842394,0.0001278,53.2151,234.4254,85.7641,274.3497,0.00014473,2.016e-05,0.0,0 STARLINK-3622,1 51768U 22017A   24181.46849824  .00002016  00000-0  14473-3 0  9991,2 51768  53.2151 234.4254 0001278  85.7641 274.3497 15.08842394130711,6917.873,95.437,540.622,538.854,0.0
51768.0,STARLINK-3622,PAYLOAD,2024-06-29 20:46:56,15.08848365,0.0001294,53.215,232.6407,79.4146,280.6992,0.00019718,2.852e-05,0.0,0 STARLINK-3622,1 51768U 22017A   24181.86593467  .00002852  00000-0  19718-3 0  9999,2 51768  53.2150 232.6407 0001294  79.4146 280.6992 15.08848365130778,6917.855,95.437,540.615,538.825,0.0
51768.0,STARLINK-3622,PAYLOAD,2024-06-30 03:08:29,15.08838251,0.0001521,53.2145,231.4513,84.8569,275.2597,-1.2556e-05,-4.88e-06,0.0,0 STARLINK-3622,1 51768U 22017A   24182.13090036 -.00000488  00000-0 -12556-4 0  9993,2 51768  53.2145 231.4513 0001521  84.8569 275.2597 15.08838251130829,6917.886,95.438,540.803,538.699,0.0
51768.0,STARLINK-3622,PAYLOAD,2024-06-30 09:30:02,15.08834727,0.0001211,53.2146,230.262,87.1317,272.9814,-5.5761e-05,-1.175e-05,0.0,0 STARLINK-3622,1 51768U 22017A   24182.39586178 -.00001175  00000-0 -55761-4 0  9997,2 51768  53.2146 230.2620 0001211  87.1317 272.9814 15.08834727130852,6917.897,95.438,540.599,538.924,0.0
51768.0,STARLINK-3622,PAYLOAD,2024-07-01 09:20:49,15.08840235,0.0001456,53.217,225.8,94.8089,265.3069,2.3991e-05,9.4e-07,0.0,0 STARLINK-3622,1 51768U 22017A   24183.38946272  .00000094  00000-0  23991-4 0  9999,2 51768  53.2170 225.8000 0001456  94.8089 265.3069 15.08840235131011,6917.88,95.438,540.752,538.737,0.0
51768.0,STARLINK-3622,PAYLOAD,2024-07-01 20:28:31,15.08842604,0.0001477,53.2173,223.7185,93.9979,266.1182,3.7787e-05,3.13e-06,0.0,0 STARLINK-3622,1 51768U 22017A   24183.85314081  .00000313  00000-0  37787-4 0  9990,2 51768  53.2173 223.7185 0001477  93.9979 266.1182 15.08842604131079,6917.872,95.437,540.759,538.716,0.0
51768.0,STARLINK-3622,PAYLOAD,2024-07-02 02:50:04,15.08820395,0.0001544,53.2176,222.5291,99.0874,261.0293,0.00034209,5.158e-05,0.0,0 STARLINK-3622,1 51768U 22017A   24184.11810797  .00005158  00000-0  34209-3 0  9992,2 51768  53.2176 222.5291 0001544  99.0874 261.0293 15.08820395131129,6917.94,95.439,540.873,538.737,0.0
51768.0,STARLINK-3622,PAYLOAD,2024-07-02 12:22:22,15.08837995,0.0001519,53.2171,220.7452,97.0035,263.113,8.4155e-05,1.052e-05,0.0,0 STARLINK-3622,1 51768U 22017A   24184.51554365  .00001052  00000-0  84155-4 0  9997,2 51768  53.2171 220.7452 0001519  97.0035 263.1130 15.08837995131185,6917.887,95.438,540.802,538.701,0.0
51768.0,STARLINK-3622,PAYLOAD,2024-07-03 18:34:42,15.08839392,0.0001386,53.217,215.0957,94.555,265.5601,5.6992e-05,6.19e-06,0.0,0 STARLINK-3622,1 51768U 22017A   24185.77410515  .00000619  00000-0  56992-4 0  9990,2 51768  53.2170 215.0957 0001386  94.5550 265.5601 15.08839392131370,6917.882,95.438,540.706,538.788,0.0
51768.0,STARLINK-3622,PAYLOAD,2024-07-04 08:53:11,15.08837142,0.0001366,53.2168,212.4194,94.4097,265.7051,6.9624e-05,8.2e-06,0.0,0 STARLINK-3622,1 51768U 22017A   24186.37026699  .00000820  00000-0  69624-4 0  9993,2 51768  53.2168 212.4194 0001366  94.4097 265.7051 15.08837142131455,6917.889,95.438,540.699,538.809,0.0
51768.0,STARLINK-3622,PAYLOAD,2024-07-04 18:25:29,15.0884063,0.0001339,53.2168,210.6354,93.6506,266.4639,5.6771e-05,6.16e-06,0.0,0 STARLINK-3622,1 51768U 22017A   24186.76770506  .00000616  00000-0  56771-4 0  9991,2 51768  53.2168 210.6354 0001339  93.6506 266.4639 15.08840630131512,6917.878,95.438,540.67,538.817,0.0
51768.0,STARLINK-3622,PAYLOAD,2024-07-05 05:33:11,15.08837123,0.0001372,53.2173,208.5546,96.6469,263.4679,7.1616e-05,8.52e-06,0.0,0 STARLINK-3622,1 51768U 22017A   24187.23138768  .00000852  00000-0  71616-4 0  9999,2 51768  53.2173 208.5546 0001372  96.6469 263.4679 15.08837123131597,6917.889,95.438,540.703,538.805,0.0
51768.0,STARLINK-3622,PAYLOAD,2024-07-05 08:43:58,15.08837471,0.000137,53.2169,207.9598,96.5437,263.5711,7.2975e-05,8.74e-06,0.0,0 STARLINK-3622,1 51768U 22017A   24187.36386762  .00000874  00000-0  72975-4 0  9995,2 51768  53.2169 207.9598 0001370  96.5437 263.5711 15.08837471131600,6917.888,95.438,540.701,538.805,0.0
